{"spkid": "50840717", "covariance": {"labels": ["e", "q", "tp", "node", "peri", "i"], "elements": [{"label": "e", "title": "eccentricity", "value": ".6774677755232015", "units": null, "sigma": 2.71762761609568e-06, "name": "e"}, {"label": "q", "sigma": 3.28663070209013e-06, "name": "q", "units": "au", "value": ".3898078375300882", "title": "perihelion distance"}, {"units": "TDB", "value": "2459111.773455483491", "title": "time of perihelion passage", "sigma": 0.000123106626462753, "name": "tp", "label": "tp"}, {"units": "deg", "value": "5.31962806852073", "title": "longitude of the ascending node", "sigma": 1.68125546849633e-05, "name": "om", "label": "node"}, {"units": "deg", "value": "304.2926113674976", "title": "argument of perihelion", "sigma": 0.000302083453946567, "name": "w", "label": "peri"}, {"label": "i", "title": "inclination", "value": "34.1346410799304", "units": "deg", "name": "i", "sigma": 0.000428839178519173}], "data": [["7.385499859765898E-12", "-8.93183745128769E-12", "-3.326511384657519E-10", "-4.232198732302761E-11", "8.202813307854694E-10", "1.116818377641334E-9"], ["-8.93183745128769E-12", "1.080194137192146E-11", "4.022850024244894E-10", "5.118929278255294E-11", "-9.920416290308924E-10", "-1.350768369202881E-9"], ["-3.326511384657519E-10", "4.022850024244894E-10", "1.515524147903989E-8", "1.842163384633473E-9", "-3.679329271949648E-8", "-4.897296902960092E-8"], ["-4.232198732302761E-11", "5.118929278255294E-11", "1.842163384633473E-9", "2.826619950348805E-10", "-4.770325327540472E-9", "-7.081083076956394E-9"], ["8.202813307854694E-10", "-9.920416290308924E-10", "-3.679329271949648E-8", "-4.770325327540472E-9", "9.125441314828776E-8", "1.253745813563694E-7"], ["1.116818377641334E-9", "-1.350768369202881E-9", "-4.897296902960092E-8", "-7.081083076956394E-9", "1.253745813563694E-7", "1.839030410329995E-7"]], "epoch": "2459289.5"}, "elements": [{"sigma": "2.715E-6", "name": "e", "title": "eccentricity", "value": ".6774184848316617", "units": null, "label": "e"}, {"units": "au", "value": "1.208274194007934", "title": "semi-major axis", "name": "a", "sigma": "3.4442E-9", "label": "a"}, {"label": "q", "sigma": "3.2807E-6", "name": "q", "units": "au", "title": "perihelion distance", "value": ".3897669202418823"}, {"name": "i", "sigma": ".00042889", "units": "deg", "value": "34.13834958386424", "title": "inclination; angle with respect to x-y ecliptic plane", "label": "i"}, {"label": "node", "value": "5.286625127513674", "title": "longitude of the ascending node", "units": "deg", "sigma": "1.6403E-5", "name": "om"}, {"label": "peri", "title": "argument of perihelion", "value": "304.3356841610758", "units": "deg", "sigma": ".00030139", "name": "w"}, {"label": "M", "title": "mean anomaly", "value": "109.775314144857", "units": "deg", "name": "ma", "sigma": "9.9302E-5"}, {"label": "tp", "units": "TDB", "value": "2461052.572518017209", "title": "time of perihelion passage", "sigma": ".0001337", "name": "tp"}, {"title": "sidereal orbital period", "value": "485.1172044338884", "units": "d", "name": "per", "sigma": "2.0742E-6", "label": "period"}, {"label": "n", "name": "n", "sigma": "3.173E-9", "title": "mean motion", "value": ".7420887090988765", "units": "deg/d"}, {"name": "ad", "sigma": "5.7774E-9", "value": "2.026781467773987", "title": "aphelion distance", "units": "au", "label": "Q"}], "epoch": "2461200.5"}